CCSDS_OMM_VERS = 2.0
CREATION_DATE  = 
ORIGINATOR     = 

OBJECT_NAME    = SL-4 R/B
OBJECT_ID      = 2014-021B
CENTER_NAME    = EARTH
REF_FRAME      = TEME
TIME_SYSTEM    = UTC
MEAN_ELEMENT_THEORY = SGP/SGP4

EPOCH          = 2025-12-30T04:08:01.747680
MEAN_MOTION    = 15.37101769
ECCENTRICITY   = .010035
INCLINATION    = 51.6082
RA_OF_ASC_NODE = 315.8491
ARG_OF_PERICENTER = 209.1816
MEAN_ANOMALY   = 150.3537

EPHEMERIS_TYPE = 0
CLASSIFICATION_TYPE = U
NORAD_CAT_ID   = 39679
ELEMENT_SET_NO = 999
REV_AT_EPOCH   = 64557
BSTAR          = .36814E-3
MEAN_MOTION_DOT = .15697E-3
MEAN_MOTION_DDOT = 0

CCSDS_OMM_VERS = 2.0
CREATION_DATE  = 
ORIGINATOR     = 

OBJECT_NAME    = ALOS-2
OBJECT_ID      = 2014-029A
CENTER_NAME    = EARTH
REF_FRAME      = TEME
TIME_SYSTEM    = UTC
MEAN_ELEMENT_THEORY = SGP/SGP4

EPOCH          = 2025-12-30T04:36:55.927872
MEAN_MOTION    = 14.79486388
ECCENTRICITY   = .0001389
INCLINATION    = 97.9212
RA_OF_ASC_NODE = 98.7892
ARG_OF_PERICENTER = 100.2390
MEAN_ANOMALY   = 259.8979

EPHEMERIS_TYPE = 0
CLASSIFICATION_TYPE = U
NORAD_CAT_ID   = 39766
ELEMENT_SET_NO = 999
REV_AT_EPOCH   = 62659
BSTAR          = .48574E-3
MEAN_MOTION_DOT = .3579E-4
MEAN_MOTION_DDOT = 0

CCSDS_OMM_VERS = 2.0
CREATION_DATE  = 
ORIGINATOR     = 

OBJECT_NAME    = YAOGAN-29
OBJECT_ID      = 2015-069A
CENTER_NAME    = EARTH
REF_FRAME      = TEME
TIME_SYSTEM    = UTC
MEAN_ELEMENT_THEORY = SGP/SGP4

EPOCH          = 2025-12-30T05:29:14.755200
MEAN_MOTION    = 14.82903716
ECCENTRICITY   = .0001276
INCLINATION    = 98.0213
RA_OF_ASC_NODE = 27.4556
ARG_OF_PERICENTER = 155.0631
MEAN_ANOMALY   = 205.0644

EPHEMERIS_TYPE = 0
CLASSIFICATION_TYPE = U
NORAD_CAT_ID   = 41038
ELEMENT_SET_NO = 999
REV_AT_EPOCH   = 54558
BSTAR          = .14589E-3
MEAN_MOTION_DOT = .1128E-4
MEAN_MOTION_DDOT = 0

CCSDS_OMM_VERS = 2.0
CREATION_DATE  = 
ORIGINATOR     = 

OBJECT_NAME    = ASTRO-H (HITOMI)
OBJECT_ID      = 2016-012A
CENTER_NAME    = EARTH
REF_FRAME      = TEME
TIME_SYSTEM    = UTC
MEAN_ELEMENT_THEORY = SGP/SGP4

EPOCH          = 2025-12-28T22:59:21.708960
MEAN_MOTION    = 15.09466005
ECCENTRICITY   = .0009652
INCLINATION    = 30.9996
RA_OF_ASC_NODE = 92.8074
ARG_OF_PERICENTER = 341.3453
MEAN_ANOMALY   = 18.6831

EPHEMERIS_TYPE = 0
CLASSIFICATION_TYPE = U
NORAD_CAT_ID   = 41337
ELEMENT_SET_NO = 999
REV_AT_EPOCH   = 54153
BSTAR          = .32727471E-3
MEAN_MOTION_DOT = .5469E-4
MEAN_MOTION_DDOT = 0

CCSDS_OMM_VERS = 2.0
CREATION_DATE  = 
ORIGINATOR     = 

OBJECT_NAME    = HXMT (HUIYAN)
OBJECT_ID      = 2017-034A
CENTER_NAME    = EARTH
REF_FRAME      = TEME
TIME_SYSTEM    = UTC
MEAN_ELEMENT_THEORY = SGP/SGP4

EPOCH          = 2025-12-30T04:20:35.561760
MEAN_MOTION    = 15.16466914
ECCENTRICITY   = .0031791
INCLINATION    = 43.0152
RA_OF_ASC_NODE = 42.8292
ARG_OF_PERICENTER = 157.4252
MEAN_ANOMALY   = 202.8002

EPHEMERIS_TYPE = 0
CLASSIFICATION_TYPE = U
NORAD_CAT_ID   = 42758
ELEMENT_SET_NO = 999
REV_AT_EPOCH   = 47198
BSTAR          = .54291E-3
MEAN_MOTION_DOT = .10673E-3
MEAN_MOTION_DDOT = 0

CCSDS_OMM_VERS = 2.0
CREATION_DATE  = 
ORIGINATOR     = 

OBJECT_NAME    = CZ-2C R/B
OBJECT_ID      = 2018-054D
CENTER_NAME    = EARTH
REF_FRAME      = TEME
TIME_SYSTEM    = UTC
MEAN_ELEMENT_THEORY = SGP/SGP4

EPOCH          = 2025-12-29T12:31:38.016192
MEAN_MOTION    = 15.77921630
ECCENTRICITY   = .00136402
INCLINATION    = 35.1326
RA_OF_ASC_NODE = 66.7871
ARG_OF_PERICENTER = 310.2300
MEAN_ANOMALY   = 49.7241

EPHEMERIS_TYPE = 0
CLASSIFICATION_TYPE = U
NORAD_CAT_ID   = 43521
ELEMENT_SET_NO = 999
REV_AT_EPOCH   = 41770
BSTAR          = .95067508E-3
MEAN_MOTION_DOT = .171438E-2
MEAN_MOTION_DDOT = 0

CCSDS_OMM_VERS = 2.0
CREATION_DATE  = 
ORIGINATOR     = 

OBJECT_NAME    = SAOCOM 1A
OBJECT_ID      = 2018-076A
CENTER_NAME    = EARTH
REF_FRAME      = TEME
TIME_SYSTEM    = UTC
MEAN_ELEMENT_THEORY = SGP/SGP4

EPOCH          = 2025-12-30T03:46:18.650784
MEAN_MOTION    = 14.82153535
ECCENTRICITY   = .0001432
INCLINATION    = 97.8850
RA_OF_ASC_NODE = 188.3251
ARG_OF_PERICENTER = 82.8136
MEAN_ANOMALY   = 277.3240

EPHEMERIS_TYPE = 0
CLASSIFICATION_TYPE = U
NORAD_CAT_ID   = 43641
ELEMENT_SET_NO = 999
REV_AT_EPOCH   = 39106
BSTAR          = .44398E-4
MEAN_MOTION_DOT = .301E-5
MEAN_MOTION_DDOT = 0

CCSDS_OMM_VERS = 2.0
CREATION_DATE  = 
ORIGINATOR     = 

OBJECT_NAME    = H-2A R/B
OBJECT_ID      = 2018-084L
CENTER_NAME    = EARTH
REF_FRAME      = TEME
TIME_SYSTEM    = UTC
MEAN_ELEMENT_THEORY = SGP/SGP4

EPOCH          = 2025-12-30T03:10:13.734624
MEAN_MOTION    = 15.38071679
ECCENTRICITY   = .0026201
INCLINATION    = 98.8770
RA_OF_ASC_NODE = 201.8248
ARG_OF_PERICENTER = 265.2620
MEAN_ANOMALY   = 94.5628

EPHEMERIS_TYPE = 0
CLASSIFICATION_TYPE = U
NORAD_CAT_ID   = 43682
ELEMENT_SET_NO = 999
REV_AT_EPOCH   = 39507
BSTAR          = .74291E-3
MEAN_MOTION_DOT = .28125E-3
MEAN_MOTION_DDOT = 0

CCSDS_OMM_VERS = 2.0
CREATION_DATE  = 
ORIGINATOR     = 

OBJECT_NAME    = SAOCOM 1B
OBJECT_ID      = 2020-059A
CENTER_NAME    = EARTH
REF_FRAME      = TEME
TIME_SYSTEM    = UTC
MEAN_ELEMENT_THEORY = SGP/SGP4

EPOCH          = 2025-12-30T04:31:18.272352
MEAN_MOTION    = 14.82156339
ECCENTRICITY   = .0001404
INCLINATION    = 97.8846
RA_OF_ASC_NODE = 187.4555
ARG_OF_PERICENTER = 83.7609
MEAN_ANOMALY   = 276.3764

EPHEMERIS_TYPE = 0
CLASSIFICATION_TYPE = U
NORAD_CAT_ID   = 46265
ELEMENT_SET_NO = 999
REV_AT_EPOCH   = 28845
BSTAR          = .48641E-4
MEAN_MOTION_DOT = .335E-5
MEAN_MOTION_DDOT = 0

CCSDS_OMM_VERS = 2.0
CREATION_DATE  = 
ORIGINATOR     = 

OBJECT_NAME    = CSS (TIANHE)
OBJECT_ID      = 2021-035A
CENTER_NAME    = EARTH
REF_FRAME      = TEME
TIME_SYSTEM    = UTC
MEAN_ELEMENT_THEORY = SGP/SGP4

EPOCH          = 2025-12-29T22:35:05.523360
MEAN_MOTION    = 15.59879801
ECCENTRICITY   = .0009454
INCLINATION    = 41.4672
RA_OF_ASC_NODE = 272.2249
ARG_OF_PERICENTER = 178.8661
MEAN_ANOMALY   = 181.2200

EPHEMERIS_TYPE = 0
CLASSIFICATION_TYPE = U
NORAD_CAT_ID   = 48274
ELEMENT_SET_NO = 999
REV_AT_EPOCH   = 26671
BSTAR          = .29092E-3
MEAN_MOTION_DOT = .23867E-3
MEAN_MOTION_DDOT = 0

CCSDS_OMM_VERS = 2.0
CREATION_DATE  = 
ORIGINATOR     = 

OBJECT_NAME    = COSMOS 2550
OBJECT_ID      = 2021-056A
CENTER_NAME    = EARTH
REF_FRAME      = TEME
TIME_SYSTEM    = UTC
MEAN_ELEMENT_THEORY = SGP/SGP4

EPOCH          = 2025-12-30T04:50:25.043136
MEAN_MOTION    = 15.33828397
ECCENTRICITY   = .0008346
INCLINATION    = 67.1444
RA_OF_ASC_NODE = 251.1166
ARG_OF_PERICENTER = 269.2631
MEAN_ANOMALY   = 90.7567

EPHEMERIS_TYPE = 0
CLASSIFICATION_TYPE = U
NORAD_CAT_ID   = 48865
ELEMENT_SET_NO = 999
REV_AT_EPOCH   = 25280
BSTAR          = .16265E-5
MEAN_MOTION_DOT = -.138E-5
MEAN_MOTION_DDOT = 0

CCSDS_OMM_VERS = 2.0
CREATION_DATE  = 
ORIGINATOR     = 

OBJECT_NAME    = CZ-2C R/B
OBJECT_ID      = 2022-058K
CENTER_NAME    = EARTH
REF_FRAME      = TEME
TIME_SYSTEM    = UTC
MEAN_ELEMENT_THEORY = SGP/SGP4

EPOCH          = 2025-12-29T21:40:08.226336
MEAN_MOTION    = 15.49471113
ECCENTRICITY   = .004417
INCLINATION    = 50.1915
RA_OF_ASC_NODE = 315.9656
ARG_OF_PERICENTER = 268.9960
MEAN_ANOMALY   = 90.5947

EPHEMERIS_TYPE = 0
CLASSIFICATION_TYPE = U
NORAD_CAT_ID   = 52794
ELEMENT_SET_NO = 999
REV_AT_EPOCH   = 19929
BSTAR          = .75172E-3
MEAN_MOTION_DOT = .43626E-3
MEAN_MOTION_DDOT = 0

