SL-4 R/B                
1 39679U 14021B   25364.17224245  .00015697  00000+0  36814-3 0  9991
2 39679  51.6082 315.8491 0100350 209.1816 150.3537 15.37101769645576
ALOS-2                  
1 39766U 14029A   25364.19231398  .00003579  00000+0  48574-3 0  9997
2 39766  97.9212  98.7892 0001389 100.2390 259.8979 14.79486388626597
YAOGAN-29               
1 41038U 15069A   25364.22864300  .00001128  00000+0  14589-3 0  9993
2 41038  98.0213  27.4556 0001276 155.0631 205.0644 14.82903716545586
ASTRO-H (HITOMI)        
1 41337U 16012A   25362.95789015  .00005469  00000+0  32727-3 0  9997
2 41337  30.9996  92.8074 0009652 341.3453  18.6831 15.09466005541532
HXMT (HUIYAN)           
1 42758U 17034A   25364.18096715  .00010673  00000+0  54291-3 0  9998
2 42758  43.0152  42.8292 0031791 157.4252 202.8002 15.16466914471983
CZ-2C R/B               
1 43521U 18054D   25363.52196778  .00171438  00000+0  95068-3 0  9991
2 43521  35.1326  66.7871 0013640 310.2300  49.7241 15.77921630417702
SAOCOM 1A               
1 43641U 18076A   25364.15716031  .00000301  00000+0  44398-4 0  9999
2 43641  97.8850 188.3251 0001432  82.8136 277.3240 14.82153535391064
H-2A R/B                
1 43682U 18084L   25364.13210341  .00028125  00000+0  74291-3 0  9992
2 43682  98.8770 201.8248 0026201 265.2620  94.5628 15.38071679395078
SAOCOM 1B               
1 46265U 20059A   25364.18840593  .00000335  00000+0  48641-4 0  9994
2 46265  97.8846 187.4555 0001404  83.7609 276.3764 14.82156339288458
CSS (TIANHE)            
1 48274U 21035A   25363.94103615  .00023867  00000+0  29092-3 0  9994
2 48274  41.4672 272.2249 0009454 178.8661 181.2200 15.59879801266717
COSMOS 2550             
1 48865U 21056A   25364.20167874 -.00000138  00000+0  16265-5 0  9997
2 48865  67.1444 251.1166 0008346 269.2631  90.7567 15.33828397252801
CZ-2C R/B               
1 52794U 22058K   25363.90287299  .00043626  00000+0  75172-3 0  9994
2 52794  50.1915 315.9656 0044170 268.9960  90.5947 15.49471113199291
